     3.04           N: GNSS NAV DATA    C: BDS              RINEX VERSION / TYPE
CHC Navigation      CHC Navigation      20230628 133752 UTC PGM / RUN BY / DATE 
     4                                                      LEAP SECONDS        
                                                            END OF HEADER       
C06 2023 06 20 01 00 00-1.749284565449D-04 6.510347816402D-12 0.000000000000D+00
     1.000000000000D+00 2.153125000000D+01 1.775788254423D-09 4.847726835167D-01
     6.984919309616D-07 3.752190619707D-03 5.227047950029D-06 6.492967367172D+03
     1.764000000000D+05 1.131556928158D-07-1.624984311942D+00-1.741573214531D-07
     9.454778381699D-01 6.139062500000D+01-2.959042568823D+00-1.851862851807D-09
     5.503800683962D-10 0.000000000000D+00 9.110000000000D+02 0.000000000000D+00
     2.000000000000D+00 0.000000000000D+00 8.900000000000D-09 0.000000000000D+00
     1.764000000000D+05 1.000000000000D+00 0.000000000000D+00 0.000000000000D+00
C07 2023 06 20 01 00 00-1.984820701182D-04-5.768274746742D-11 0.000000000000D+00
     1.000000000000D+00 4.936406250000D+02 7.257445158864D-10-1.660441224202D+00
     1.610117033124D-05 2.749363309704D-03 2.373103052378D-05 6.493913679123D+03
     1.764000000000D+05-1.182779669762D-07 3.358372187739D-01-3.431923687458D-07
     8.655300029702D-01-5.110000000000D+02-2.819595993045D+00-1.488990593863D-09
    -7.903900657759D-10 0.000000000000D+00 9.110000000000D+02 0.000000000000D+00
     2.000000000000D+00 0.000000000000D+00 1.510000000000D-08 0.000000000000D+00
     1.764000000000D+05 0.000000000000D+00 0.000000000000D+00 0.000000000000D+00
C08 2023 06 20 01 00 00 4.543218528852D-04-1.127187232441D-11 0.000000000000D+00
     1.000000000000D+00-6.412812500000D+02 6.814569568461D-10 2.851501291309D+00
    -2.034474164248D-05 2.276528277434D-03-6.951391696930D-06 6.493748767853D+03
     1.764000000000D+05 1.499429345131D-07 2.525773550367D+00 3.380700945854D-07
     1.061904155953D+00 4.840781250000D+02 3.036369586284D+00-2.181876598204D-09
    -3.771585673111D-10 0.000000000000D+00 9.110000000000D+02 0.000000000000D+00
     2.000000000000D+00 0.000000000000D+00 1.150000000000D-08 0.000000000000D+00
     1.764000000000D+05 0.000000000000D+00 0.000000000000D+00 0.000000000000D+00
C09 2023 06 20 01 00 00 5.140129942447D-04-4.522782148797D-11 0.000000000000D+00
     1.000000000000D+00 2.985937500000D+01 1.739001007801D-09-4.759301980717D-01
     7.827766239643D-07 1.106482313480D-02 4.863366484642D-06 6.493002769470D+03
     1.764000000000D+05 2.887099981308D-08-1.580826002445D+00-1.201406121254D-07
     9.502224852663D-01 7.971875000000D+01-2.300464391896D+00-1.858291691022D-09
     4.975207237351D-10 0.000000000000D+00 9.110000000000D+02 0.000000000000D+00
     2.000000000000D+00 0.000000000000D+00 7.400000000000D-09 0.000000000000D+00
     1.764000000000D+05 0.000000000000D+00 0.000000000000D+00 0.000000000000D+00
C10 2023 06 20 01 00 00-9.081070311368D-05-1.049116349350D-11 0.000000000000D+00
     1.000000000000D+00 4.983593750000D+02 7.018149476953D-10-2.193838596812D+00
     1.621106639504D-05 9.133318439126D-03 2.370681613684D-05 6.493061599731D+03
     1.764000000000D+05-3.459863364697D-07 3.299272228388D-01-2.160668373108D-07
     8.676870098468D-01-5.088125000000D+02-2.479671784923D+00-1.416130416087D-09
    -6.921716888720D-10 0.000000000000D+00 9.110000000000D+02 0.000000000000D+00
     2.000000000000D+00 0.000000000000D+00 6.500000000000D-09 0.000000000000D+00
     1.764000000000D+05 0.000000000000D+00 0.000000000000D+00 0.000000000000D+00
C11 2023 06 20 01 00 00 6.832205690444D-04 2.054179049082D-11 0.000000000000D+00
     1.000000000000D+00 1.353281250000D+02 3.164774682712D-09 2.883035722284D+00
     6.622634828091D-06 1.845928840339D-03 2.494547516108D-06 5.282639095306D+03
     1.764000000000D+05-3.539025783539D-08 1.316399244010D+00-2.048909664154D-08
     9.867590047362D-01 3.230625000000D+02-1.820967286482D+00-6.703136355392D-09
     3.146559638268D-10 0.000000000000D+00 9.110000000000D+02 0.000000000000D+00
     2.000000000000D+00 0.000000000000D+00 4.900000000000D-09 0.000000000000D+00
     1.764000000000D+05 0.000000000000D+00 0.000000000000D+00 0.000000000000D+00
C12 2023 06 20 01 00 00 7.256128592417D-04 2.832134526898D-11 0.000000000000D+00
     1.000000000000D+00 1.407343750000D+02 3.318709666150D-09-2.604669970251D+00
     6.783287972212D-06 9.360405383632D-04 1.835171133280D-06 5.282607185364D+03
     1.764000000000D+05 6.146728992462D-08 1.304153045586D+00-6.239861249924D-08
     9.852277054771D-01 3.350625000000D+02-1.817442673565D+00-6.792782946675D-09
     2.832260832175D-10 0.000000000000D+00 9.110000000000D+02 0.000000000000D+00
     2.000000000000D+00 0.000000000000D+00 4.200000000000D-09 0.000000000000D+00
     1.764000000000D+05 0.000000000000D+00 0.000000000000D+00 0.000000000000D+00
C13 2023 06 20 01 00 00 2.996791154146D-04 7.900347043233D-12 0.000000000000D+00
     6.000000000000D+00-6.126562500000D+02 8.521783537919D-10 1.881015679030D+00
    -1.956522464752D-05 4.469011328183D-03-8.295755833387D-06 6.492909439087D+03
     1.764000000000D+05 2.230517566204D-07 2.497955833933D+00 2.491287887096D-07
     1.023725134970D+00 5.101093750000D+02-2.467350224275D+00-2.252236671841D-09
    -3.335853237391D-10 0.000000000000D+00 9.110000000000D+02 0.000000000000D+00
     2.000000000000D+00 0.000000000000D+00-9.400000000000D-09 0.000000000000D+00
     1.764000000000D+05 0.000000000000D+00 0.000000000000D+00 0.000000000000D+00
C14 2023 06 20 01 00 00 4.364758497104D-04 5.858602492026D-11 1.029992063861D-18
     5.000000000000D+00-1.300156250000D+02 3.469430229981D-09-6.788273871997D-01
    -6.384216248989D-06 1.342772040516D-03 9.503681212664D-06 5.282636489868D+03
     1.764000000000D+05 4.656612873077D-09-2.908338145649D+00 1.350417733192D-08
     9.714538694787D-01 1.751562500000D+02-3.485713779113D-01-6.450268679581D-09
     2.925121843066D-10 0.000000000000D+00 9.110000000000D+02 0.000000000000D+00
     2.000000000000D+00 0.000000000000D+00 7.600000000000D-09 0.000000000000D+00
     1.764000000000D+05 4.000000000000D+00 0.000000000000D+00 0.000000000000D+00
C21 2023 06 20 01 00 00-9.251756127924D-04-3.962163930282D-12 0.000000000000D+00
     1.000000000000D+00-1.332343750000D+02 3.432642983359D-09 7.467360298101D-01
    -6.452202796936D-06 7.552417227998D-04 1.041078940034D-05 5.282633876801D+03
     1.764000000000D+05-7.450580596924D-09-2.905632804892D+00 2.281740307808D-08
     9.733737505009D-01 1.600000000000D+02-6.160386082293D-01-6.375979870869D-09
     2.646538810393D-10 0.000000000000D+00 9.110000000000D+02 0.000000000000D+00
     2.000000000000D+00 0.000000000000D+00 1.190000000000D-08 0.000000000000D+00
     1.764000000000D+05 1.000000000000D+00 0.000000000000D+00 0.000000000000D+00
C23 2023 06 20 01 00 00-9.633293375373D-04-1.231015289704D-11 0.000000000000D+00
     1.000000000000D+00-1.485937500000D+01 4.361967407737D-09-2.633423091133D+00
    -7.883645594120D-07 3.137111198157D-04 5.862209945917D-06 5.282609115601D+03
     1.764000000000D+05-1.629814505577D-08-8.103829141012D-01 6.053596735001D-09
     9.455560209008D-01 2.362812500000D+02-1.614547503264D+00-6.871714805933D-09
    -5.185930300527D-10 0.000000000000D+00 9.110000000000D+02 0.000000000000D+00
     2.000000000000D+00 0.000000000000D+00 2.310000000000D-08 0.000000000000D+00
     1.764000000000D+05 1.000000000000D+00 0.000000000000D+00 0.000000000000D+00
C24 2023 06 20 01 00 00 8.185417391360D-05 4.307842971230D-11 0.000000000000D+00
     1.000000000000D+00-1.310937500000D+01 4.436613374184D-09-3.025431314158D+00
    -7.012858986855D-07 4.290326032788D-04 5.581881850958D-06 5.282631399155D+03
     1.764000000000D+05 1.303851604462D-08-8.105663742687D-01-2.793967723846D-08
     9.455492797743D-01 2.372500000000D+02 3.582085833625D-01-6.893858585453D-09
    -5.560945921433D-10 0.000000000000D+00 9.110000000000D+02 0.000000000000D+00
     2.000000000000D+00 0.000000000000D+00 4.700000000000D-09 0.000000000000D+00
     1.764000000000D+05 1.000000000000D+00 0.000000000000D+00 0.000000000000D+00
C25 2023 06 20 01 00 00 1.509421272203D-04 7.933209644762D-12 0.000000000000D+00
     1.000000000000D+00-1.454687500000D+01 4.352681306648D-09 2.355990287309D+00
    -9.783543646336D-07 3.944815834984D-04 5.834735929966D-06 5.282611682892D+03
     1.764000000000D+05-3.725290298462D-09-8.347567121791D-01-1.024454832077D-08
     9.469889886582D-01 2.369531250000D+02 4.306445916987D-01-6.852071130552D-09
    -5.539516457381D-10 0.000000000000D+00 9.110000000000D+02 0.000000000000D+00
     2.000000000000D+00 0.000000000000D+00 1.500000000000D-09 0.000000000000D+00
     1.764000000000D+05 1.000000000000D+00 0.000000000000D+00 0.000000000000D+00
C28 2023 06 20 01 00 00 1.171914627776D-04 4.315658941323D-12 0.000000000000D+00
     1.000000000000D+00 1.275000000000D+02 3.683724870498D-09 3.117191912950D+00
     6.505288183689D-06 9.237451013178D-05 2.481043338776D-06 5.282635337830D+03
     1.764000000000D+05-6.984919309616D-09 1.293390778597D+00-1.769512891769D-08
     9.623972728065D-01 3.090937500000D+02 2.973412734118D+00-6.957075504406D-09
     3.235849071817D-10 0.000000000000D+00 9.110000000000D+02 0.000000000000D+00
     2.000000000000D+00 0.000000000000D+00-3.600000000000D-09 0.000000000000D+00
     1.764000000000D+05 1.000000000000D+00 0.000000000000D+00 0.000000000000D+00
